{
    "links": {
        "self": "http://www.neowsapp.com/rest/v1/neo/3785930?api_key=iIulBulltgU6a56xZRHN4H3l9WmuAYTsLGpBGhQ2"
    },
    "id": "3785930",
    "neo_reference_id": "3785930",
    "name": "(2017 TS5)",
    "designation": "2017 TS5",
    "nasa_jpl_url": "http://ssd.jpl.nasa.gov/sbdb.cgi?sstr=3785930",
    "absolute_magnitude_h": 25.4,
    "estimated_diameter": {
        "kilometers": {
            "estimated_diameter_min": 0.022108281,
            "estimated_diameter_max": 0.0494356193
        },
        "meters": {
            "estimated_diameter_min": 22.1082810359,
            "estimated_diameter_max": 49.435619262
        },
        "miles": {
            "estimated_diameter_min": 0.0137374447,
            "estimated_diameter_max": 0.0307178602
        },
        "feet": {
            "estimated_diameter_min": 72.5337327539,
            "estimated_diameter_max": 162.1903570994
        }
    },
    "is_potentially_hazardous_asteroid": false,
    "close_approach_data": [
        {
            "close_approach_date": "2017-10-09",
            "close_approach_date_full": "2017-Oct-09 17:20",
            "epoch_date_close_approach": 1507569600000,
            "relative_velocity": {
                "kilometers_per_second": "14.8626156943",
                "kilometers_per_hour": "53505.4164996492",
                "miles_per_hour": "33246.1850466848"
            },
            "miss_distance": {
                "astronomical": "0.0559160512",
                "lunar": "21.7513439168",
                "kilometers": "8364922.158330944",
                "miles": "5197721.6076332672"
            },
            "orbiting_body": "Earth"
        }
    ],
    "orbital_data": {
        "orbit_id": "3",
        "orbit_determination_date": "2017-10-23 06:22:06",
        "first_observation_date": "2017-10-14",
        "last_observation_date": "2017-10-20",
        "data_arc_in_days": 6,
        "observations_used": 26,
        "orbit_uncertainty": "8",
        "minimum_orbit_intersection": ".0538607",
        "jupiter_tisserand_invariant": "4.456",
        "epoch_osculation": "2458041.5",
        "eccentricity": ".3067533343161813",
        "semi_major_axis": "1.468742044626984",
        "inclination": "25.4510514947964",
        "ascending_node_longitude": "17.70155938022504",
        "orbital_period": "650.1547170182376",
        "perihelion_distance": "1.018200525187291",
        "perihelion_argument": "328.3555203185527",
        "aphelion_distance": "1.919283564066676",
        "perihelion_time": "2458008.959745963271",
        "mean_anomaly": "18.0180057862963",
        "mean_motion": ".5537143553322886",
        "equinox": "J2000",
        "orbit_class": {
            "orbit_class_type": "AMO",
            "orbit_class_description": "Near-Earth asteroid orbits similar to that of 1221 Amor",
            "orbit_class_range": "1.017 AU < q (perihelion) < 1.3 AU"
        }
    },
    "is_sentry_object": false
}